IRIDIUM 39              
1 25042U 97069D   25143.61704934  .00000496  00000+0  12466-3 0  9993
2 25042  86.3945 221.6574 0018942  35.7963 324.4507 14.49193430445404
IRIDIUM 38              
1 25043U 97069E   25143.53760545  .00000372  00000+0  11641-3 0  9992
2 25043  86.3969 243.5195 0003143 133.2514 226.8947 14.38097442442411
IRIDIUM 42              
1 25077U 97077A   25143.58321418  .00000319  00000+0  10253-3 0  9994
2 25077  86.3967 249.6409 0002228 114.5738 245.5691 14.36333127437660
IRIDIUM 44              
1 25078U 97077B   25143.53457866  .00000351  00000+0  10465-3 0  9998
2 25078  86.3982 231.6494 0004141 101.5779 258.5885 14.40223330440156
IRIDIUM 45              
1 25104U 97082A   25143.26883799  .00017936  00000+0  64956-3 0  9993
2 25104  86.3597  59.9840 0121912  65.6462 295.7452 15.21400955448251
IRIDIUM 24              
1 25105U 97082B   25143.60877880  .00000463  00000+0  13471-3 0  9999
2 25105  86.3892  90.7257 0012235 149.0687 211.1236 14.42075638439674
IRIDIUM 51              
1 25262U 98018A   25143.51875495  .00036645  00000+0  84857-3 0  9990
2 25262  86.3845  68.0323 0088256 347.6844  12.2249 15.38198961443237
IRIDIUM 57              
1 25273U 98019B   25143.50258752  .00000320  00000+0  10362-3 0  9994
2 25273  86.3967 155.6027 0002320  92.2670 267.8793 14.35877498421453
